0 VENESAT-1
1 33414U 08055A   13281.51102602 -.00000249  00000-0  10000-3 0  3382
2 33414 000.0239 343.4112 0001712 229.2878 270.5974 01.00271161 18190
0 VENESAT-1
1 33414U 08055A   13282.53714612 -.00000252  00000-0  10000-3 0  3390
2 33414 000.0373 001.4159 0001308 224.4972 267.7756 01.00270056 18204
0 VENESAT-1
1 33414U 08055A   13283.37824115 -.00000254  00000-0  10000-3 0  3407
2 33414 000.0410 355.7220 0001264 219.5196 222.0719 01.00270073 18217
0 VENESAT-1
1 33414U 08055A   13283.58650709  .00000000  00000-0  10000-3 0  3404
2 33414 000.0252 108.5561 0000461 083.7933 320.1024 01.00264167 18172
0 VENESAT-1
1 33414U 08055A   13284.50019729 -.00000258  00000-0  10000-3 0  3415
2 33414 000.0412 355.9990 0001300 218.9497 267.3665 01.00269740 18225
0 VENESAT-1
1 33414U 08055A   13285.93844713 -.00000261  00000-0  10000-3 0  3427
2 33414 000.0412 356.0205 0001326 218.3679 067.1017 01.00269311 18232
0 VENESAT-1
1 33414U 08055A   13288.48980073 -.00000263  00000-0  10000-3 0  3433
2 33414 000.0480 045.4913 0001919 166.1225 270.8909 01.00273366 18268
0 VENESAT-1
1 33414U 08055A   13289.48932378 -.00000262  00000-0  10000-3 0  3449
2 33414 000.0483 036.8772 0001986 177.9440 268.5023 01.00273174 18270
0 VENESAT-1
1 33414U 08055A   13289.64759881  .00000000  00000-0  10000-3 0  3453
2 33414 000.0150 108.4901 0001774 083.9962 347.9472 01.00265509 18230
0 VENESAT-1
1 33414U 08055A   13290.52299950 -.00000260  00000-0  10000-3 0  3457
2 33414 000.0497 036.8602 0001995 179.2069 280.4015 01.00272803 18282
0 VENESAT-1
1 33414U 08055A   13291.98109242 -.00000257  00000-0  10000-3 0  3469
2 33414 000.0521 036.8516 0002071 180.2436 085.7314 01.00272615 18290
0 VENESAT-1
1 33414U 08055A   13293.13751978 -.00000254  00000-0  10000-3 0  3475
2 33414 000.0572 044.0950 0002131 174.6970 141.4935 01.00272445 18319
0 VENESAT-1
1 33414U 08055A   13295.12318884 -.00000251  00000-0  10000-3 0  3489
2 33414 000.0598 045.3379 0002145 174.3117 137.4371 01.00271936 18325
